[
  {
    "name": "COSMOS 2251 DEB",
    "line1": "1 34003U 93036GN  25189.40373365  .00001598  00000+0  10912-2 0  9994",
    "line2": "2 34003  74.0757 189.7356 0281262 338.5489  20.4031 13.83201441822494"
  },
  {
    "name": "COSMOS 2251 DEB",
    "line1": "1 34004U 93036GP  25189.56027511  .00001965  00000+0  53943-3 0  9991",
    "line2": "2 34004  74.0347 247.3624 0034926 304.9601  54.8279 14.47379936857629"
  },
  {
    "name": "COSMOS 2251 DEB",
    "line1": "1 34005U 93036GQ  25189.66043384  .00000213  00000+0  75816-4 0  9998",
    "line2": "2 34005  74.0450 143.8249 0021519 301.5978 236.8123 14.40148811861176"
  },
  {
    "name": "COSMOS 2251 DEB",
    "line1": "1 34006U 93036GR  25188.21093412  .00017657  00000+0  21268-2 0  9996",
    "line2": "2 34006  74.0575  99.1942 0012625 139.1099  12.1798 14.83792408863107"
  },
  {
    "name": "COSMOS 2251 DEB",
    "line1": "1 34007U 93036GS  25189.66642451  .00002129  00000+0  41259-3 0  9991",
    "line2": "2 34007  74.0199 288.8112 0047779 100.9718 259.6830 14.63205707867814"
  },
  {
    "name": "COSMOS 2251 DEB",
    "line1": "1 34008U 93036GT  25189.65371466  .00000147  00000+0  63134-4 0  9991",
    "line2": "2 34008  74.0336 257.5603 0024682 293.1727 191.5313 14.33022043857141"
  },
  {
    "name": "COSMOS 2251 DEB",
    "line1": "1 34009U 93036GU  25189.65202705  .00000172  00000+0  71969-4 0  9994",
    "line2": "2 34009  74.0367 263.9609 0027686  11.6940 105.8515 14.33071382856950"
  },
  {
    "name": "COSMOS 2251 DEB",
    "line1": "1 34010U 93036GV  25189.82648555  .00014240  00000+0  11510-2 0  9997",
    "line2": "2 34010  74.0079 246.1996 0015529  35.0179 325.2026 14.99725322869222"
  },
  {
    "name": "COSMOS 2251 DEB",
    "line1": "1 34011U 93036GW  25189.60225376  .00001308  00000+0  41345-3 0  9997",
    "line2": "2 34011  74.0133 261.4515 0039684  23.2974 336.9968 14.40728904856529"
  },
  {
    "name": "COSMOS 2251 DEB",
    "line1": "1 34014U 93036GZ  25189.85628481  .00002497  00000+0  40924-3 0  9993",
    "line2": "2 34014  74.0162 226.1187 0040511  43.1859 135.1353 14.70772122869953"
  },
  {
    "name": "COSMOS 2251 DEB",
    "line1": "1 34015U 93036HA  25189.88257044  .00001966  00000+0  43141-3 0  9994",
    "line2": "2 34015  74.0253  98.4861 0024373 232.4765 199.8201 14.58133645862433"
  },
  {
    "name": "COSMOS 2251 DEB",
    "line1": "1 34018U 93036HD  25189.83451641  .00000294  00000+0  22939-3 0  9996",
    "line2": "2 34018  73.8783 357.9520 0266064  62.6177  54.1449 13.80851302824910"
  },
  {
    "name": "COSMOS 2251 DEB",
    "line1": "1 34019U 93036HE  25189.83955622  .00001587  00000+0  57614-3 0  9999",
    "line2": "2 34019  73.9549 339.0419 0061898 192.4206 318.9603 14.33082935852723"
  },
  {
    "name": "COSMOS 2251 DEB",
    "line1": "1 34021U 93036HG  25189.75531866  .00000802  00000+0  21694-3 0  9991",
    "line2": "2 34021  74.0364  64.4056 0021119 245.3571 184.5943 14.49305480863551"
  },
  {
    "name": "COSMOS 2251 DEB",
    "line1": "1 34022U 93036HH  25189.73679578  .00000356  00000+0  12448-3 0  9994",
    "line2": "2 34022  74.0522 200.0147 0023808 305.8888 170.8628 14.38683886859377"
  },
  {
    "name": "COSMOS 2251 DEB",
    "line1": "1 34023U 93036HJ  25189.72025609  .00000607  00000+0  20026-3 0  9994",
    "line2": "2 34023  74.0236 182.2178 0019959 316.6516 217.3710 14.40136295859532"
  },
  {
    "name": "COSMOS 2251 DEB",
    "line1": "1 34024U 93036HK  25189.58083209  .00000244  00000+0  94174-4 0  9992",
    "line2": "2 34024  74.0451 243.9845 0022178 335.0324 175.4399 14.35188974857694"
  },
  {
    "name": "COSMOS 2251 DEB",
    "line1": "1 34026U 93036HM  25189.58478795  .00000630  00000+0  53388-3 0  9992",
    "line2": "2 34026  73.7659 238.4732 0347882 131.9009  19.1595 13.64835309813877"
  },
  {
    "name": "COSMOS 2251 DEB",
    "line1": "1 34028U 93036HP  25189.58819862  .00000202  00000+0  24909-3 0  9990",
    "line2": "2 34028  73.8800 228.1717 0546744  31.9728 119.0003 13.20443777789335"
  },
  {
    "name": "COSMOS 2251 DEB",
    "line1": "1 34031U 93036HS  25189.85468494  .00002225  00000+0  49115-3 0  9998",
    "line2": "2 34031  74.0144  74.8023 0025147 228.9485 255.5833 14.57750915862780"
  },
  {
    "name": "COSMOS 2251 DEB",
    "line1": "1 34035U 93036HW  25189.45663497  .00002371  00000+0  61259-3 0  9993",
    "line2": "2 34035  74.0658 284.3205 0046261 333.3858 152.5962 14.49872674856857"
  },
  {
    "name": "COSMOS 2251 DEB",
    "line1": "1 34036U 93036HX  25189.55270654  .00011381  00000+0  13834-2 0  9990",
    "line2": "2 34036  74.0261 103.0169 0025457 196.6171 163.4176 14.83324988862321"
  },
  {
    "name": "COSMOS 2251 DEB",
    "line1": "1 34037U 93036HY  25189.80579715  .00000860  00000+0  31136-3 0  9995",
    "line2": "2 34037  74.0520 337.5051 0054959  66.6089 294.0829 14.34080162854671"
  },
  {
    "name": "COSMOS 2251 DEB",
    "line1": "1 34040U 93036JB  25189.84172182  .00000838  00000+0  67704-3 0  9995",
    "line2": "2 34040  73.9583 324.9978 0342234 310.8137  46.3753 13.67892652814540"
  },
  {
    "name": "COSMOS 2251 DEB",
    "line1": "1 34045U 93036JG  25189.57578542  .00000119  00000+0  51938-4 0  9995",
    "line2": "2 34045  74.0375 238.3726 0026642 359.9587 114.7140 14.33965360857807"
  },
  {
    "name": "COSMOS 2251 DEB",
    "line1": "1 34046U 93036JH  25189.71655499  .00002111  00000+0  59072-3 0  9999",
    "line2": "2 34046  74.0395 303.1790 0082439  65.5139  56.2652 14.44757898855578"
  },
  {
    "name": "COSMOS 2251 DEB",
    "line1": "1 34050U 93036JM  25189.68751845  .00000407  00000+0  25809-3 0  9999",
    "line2": "2 34050  74.0881 279.3432 0218354  21.5823  94.3811 13.95723748832408"
  },
  {
    "name": "COSMOS 2251 DEB",
    "line1": "1 34053U 93036JQ  25189.84835762  .00000276  00000+0  27542-3 0  9991",
    "line2": "2 34053  73.8444 134.9445 0424484 309.6538  46.7823 13.48917779805680"
  },
  {
    "name": "COSMOS 2251 DEB",
    "line1": "1 34056U 93036JT  25189.90379780  .00002303  00000+0  10184-2 0  9990",
    "line2": "2 34056  74.0597 356.4760 0131466  83.0603  30.3239 14.19232902841853"
  },
  {
    "name": "COSMOS 2251 DEB",
    "line1": "1 34058U 93036JV  25189.70667211  .00000487  00000+0  45712-3 0  9996",
    "line2": "2 34058  73.9333  72.6199 0378276  97.6093 290.3940 13.55885301810141"
  },
  {
    "name": "COSMOS 2251 DEB",
    "line1": "1 34059U 93036JW  25189.87879071  .00001841  00000+0  46437-3 0  9994",
    "line2": "2 34059  74.0394 121.8495 0020421 239.2257 177.4237 14.51703095861820"
  },
  {
    "name": "COSMOS 2251 DEB",
    "line1": "1 34061U 93036JY  25189.76669692  .00000562  00000+0  18650-3 0  9996",
    "line2": "2 34061  74.0374 193.4324 0021920 310.6496 230.1280 14.39939171859207"
  },
  {
    "name": "COSMOS 2251 DEB",
    "line1": "1 34062U 93036JZ  25189.79952215  .00005261  00000+0  77743-3 0  9995",
    "line2": "2 34062  74.0310  85.0377 0087409 204.2003 217.5457 14.72887318862816"
  },
  {
    "name": "COSMOS 2251 DEB",
    "line1": "1 34064U 93036KB  25189.48222606  .00000913  00000+0  28734-3 0  9992",
    "line2": "2 34064  74.0304 202.4300 0024165 309.6457 207.4628 14.41673902858759"
  },
  {
    "name": "COSMOS 2251 DEB",
    "line1": "1 34065U 93036KC  25189.45148402  .00000289  00000+0  10455-3 0  9998",
    "line2": "2 34065  74.0340 187.7884 0017389 324.4768 157.2351 14.37861486859445"
  },
  {
    "name": "COSMOS 2251 DEB",
    "line1": "1 34070U 93036KH  25189.90036147  .00005498  00000+0  88062-3 0  9992",
    "line2": "2 34070  74.0032  62.9009 0025449 207.1953 167.8988 14.71768492863002"
  },
  {
    "name": "COSMOS 2251 DEB",
    "line1": "1 34114U 93036KK  25189.84637340  .00003998  00000+0  95523-3 0  9999",
    "line2": "2 34114  74.0605 340.1815 0051374  24.2406  96.5233 14.53163666855206"
  },
  {
    "name": "COSMOS 2251 DEB",
    "line1": "1 34115U 93036KL  25189.42223553  .00004538  00000+0  65373-3 0  9992",
    "line2": "2 34115  74.0061 191.2349 0030768  48.9267 311.4557 14.76310317870883"
  },
  {
    "name": "COSMOS 2251 DEB",
    "line1": "1 34116U 93036KM  25189.85553189  .00001714  00000+0  43293-3 0  9991",
    "line2": "2 34116  74.0418 118.3618 0013795 235.0541 181.4230 14.51747159862092"
  },
  {
    "name": "COSMOS 2251 DEB",
    "line1": "1 34117U 93036KN  25189.67402399  .00000845  00000+0  27546-3 0  9995",
    "line2": "2 34117  74.0392 273.7945 0058468  29.2688 331.1720 14.39223872858634"
  },
  {
    "name": "COSMOS 2251 DEB",
    "line1": "1 34118U 93036KP  25189.74259552  .00009427  00000+0  10200-2 0  9998",
    "line2": "2 34118  73.9529 204.9639 0069674  69.1381  49.7031 14.86582552868380"
  },
  {
    "name": "COSMOS 2251 DEB",
    "line1": "1 34120U 93036KR  25189.85356553  .00000407  00000+0  26148-3 0  9990",
    "line2": "2 34120  73.9922 127.9270 0183047 349.6347  71.1440 13.98465916837873"
  },
  {
    "name": "COSMOS 2251 DEB",
    "line1": "1 34121U 93036KS  25189.88629986  .00000753  00000+0  49209-3 0  9994",
    "line2": "2 34121  73.9940   5.7297 0237926 244.6034 227.0900 13.91122650829646"
  },
  {
    "name": "COSMOS 2251 DEB",
    "line1": "1 34122U 93036KT  25189.71074098  .00003399  00000+0  63799-3 0  9994",
    "line2": "2 34122  74.0382  60.1108 0084763 357.6273  58.6817 14.62822740863878"
  },
  {
    "name": "COSMOS 2251 DEB",
    "line1": "1 34127U 93036KY  25189.79842616  .00003231  00000+0  11820-2 0  9998",
    "line2": "2 34127  74.1817 326.9891 0113676 208.5892 271.6568 14.29752750845276"
  },
  {
    "name": "COSMOS 2251 DEB",
    "line1": "1 34128U 93036KZ  25189.64071539  .00005669  00000+0  57093-3 0  9991",
    "line2": "2 34128  74.0020 254.2230 0040670  47.1636 105.0985 14.90782295868192"
  },
  {
    "name": "COSMOS 2251 DEB",
    "line1": "1 34129U 93036LA  25189.68634691  .00004107  00000+0  64425-3 0  9993",
    "line2": "2 34129  74.0374 285.9302 0037532  49.5761 310.8675 14.72512090589842"
  }
]